STARLINK-35492          
1 65926U 25225S   25303.83336806 -.01995826  00000+0 -27994-1 0  9997
2 65926  53.1593  51.5365 0001298  65.4404 118.4688 15.59636772  4533
STARLINK-35494          
1 65927U 25225T   25303.83336806 -.01989814  00000+0 -27901-1 0  9996
2 65927  53.1590  51.5277 0001266  64.5996 123.1417 15.59634036  4538
STARLINK-35493          
1 65928U 25225U   25303.83336806 -.01993622  00000+0 -27961-1 0  9995
2 65928  53.1596  51.5196 0001198  62.8688 128.7067 15.59635732  4488
STARLINK-35175          
1 65929U 25225V   25303.83336806 -.01997740  00000+0 -28024-1 0  9992
2 65929  53.1585  51.5160 0001181  65.9264 127.5660 15.59638590  4531
STARLINK-35513          
1 65930U 25225W   25303.83336806 -.01984006  00000+0 -27812-1 0  9999
2 65930  53.1592  51.5236 0001222  68.3542 121.3046 15.59630624  4537
STARLINK-35526          
1 65931U 25225X   25303.83336806 -.01994202  00000+0 -27969-1 0  9992
2 65931  53.1591  51.5114 0001245  69.7828 125.6278 15.59636069  4532
STARLINK-35436          
1 65932U 25225Y   25303.83336806 -.01999923  00000+0 -28056-1 0  9996
2 65932  53.1589  51.5083 0001220  62.9719 134.3520 15.59640644  4533
STARLINK-35192          
1 65933U 25225Z   25303.83336806 -.01989311  00000+0 -27895-1 0  9997
2 65933  53.1591  51.4956 0001149  70.1429 132.9343 15.59633318  4531
STARLINK-33921          
1 65934U 25225AA  25303.83336806 -.01995133  00000+0 -27984-1 0  9996
2 65934  53.1591  51.5042 0001197  64.9983 134.2454 15.59636432  4525
STARLINK-35155          
1 65935U 25225AB  25303.83336806 -.01987315  00000+0 -27864-1 0  9997
2 65935  53.1592  51.5000 0001189  70.7548 130.4059 15.59632209  4521
STARLINK-35161          
1 65936U 25225AC  25303.83336806 -.01983934  00000+0 -27810-1 0  9992
2 65936  53.1591  51.4922 0001245  62.3911 142.5993 15.59631643  4530
STARLINK-35473          
1 65937U 25225AD  25303.83336806 -.01985669  00000+0 -27840-1 0  9993
2 65937  53.1592  51.4887 0001141  69.2543 137.6583 15.59630125  4538
