CCSDS_OMM_VERS = 2.0
CREATION_DATE  = 
ORIGINATOR     = 

OBJECT_NAME    = STARLINK-35492
OBJECT_ID      = 2025-225S
CENTER_NAME    = EARTH
REF_FRAME      = TEME
TIME_SYSTEM    = UTC
MEAN_ELEMENT_THEORY = SGP/SGP4

EPOCH          = 2025-10-30T20:00:03.000384
MEAN_MOTION    = 15.59636772
ECCENTRICITY   = .0001298
INCLINATION    = 53.1593
RA_OF_ASC_NODE = 51.5365
ARG_OF_PERICENTER = 65.4404
MEAN_ANOMALY   = 118.4688

EPHEMERIS_TYPE = 0
CLASSIFICATION_TYPE = U
NORAD_CAT_ID   = 65926
ELEMENT_SET_NO = 999
REV_AT_EPOCH   = 453
BSTAR          = -.27994E-1
MEAN_MOTION_DOT = -.1995826E-1
MEAN_MOTION_DDOT = 0

CCSDS_OMM_VERS = 2.0
CREATION_DATE  = 
ORIGINATOR     = 

OBJECT_NAME    = STARLINK-35494
OBJECT_ID      = 2025-225T
CENTER_NAME    = EARTH
REF_FRAME      = TEME
TIME_SYSTEM    = UTC
MEAN_ELEMENT_THEORY = SGP/SGP4

EPOCH          = 2025-10-30T20:00:03.000384
MEAN_MOTION    = 15.59634036
ECCENTRICITY   = .0001266
INCLINATION    = 53.1590
RA_OF_ASC_NODE = 51.5277
ARG_OF_PERICENTER = 64.5996
MEAN_ANOMALY   = 123.1417

EPHEMERIS_TYPE = 0
CLASSIFICATION_TYPE = U
NORAD_CAT_ID   = 65927
ELEMENT_SET_NO = 999
REV_AT_EPOCH   = 453
BSTAR          = -.27901E-1
MEAN_MOTION_DOT = -.1989814E-1
MEAN_MOTION_DDOT = 0

CCSDS_OMM_VERS = 2.0
CREATION_DATE  = 
ORIGINATOR     = 

OBJECT_NAME    = STARLINK-35493
OBJECT_ID      = 2025-225U
CENTER_NAME    = EARTH
REF_FRAME      = TEME
TIME_SYSTEM    = UTC
MEAN_ELEMENT_THEORY = SGP/SGP4

EPOCH          = 2025-10-30T20:00:03.000384
MEAN_MOTION    = 15.59635732
ECCENTRICITY   = .0001198
INCLINATION    = 53.1596
RA_OF_ASC_NODE = 51.5196
ARG_OF_PERICENTER = 62.8688
MEAN_ANOMALY   = 128.7067

EPHEMERIS_TYPE = 0
CLASSIFICATION_TYPE = U
NORAD_CAT_ID   = 65928
ELEMENT_SET_NO = 999
REV_AT_EPOCH   = 448
BSTAR          = -.27961E-1
MEAN_MOTION_DOT = -.1993622E-1
MEAN_MOTION_DDOT = 0

CCSDS_OMM_VERS = 2.0
CREATION_DATE  = 
ORIGINATOR     = 

OBJECT_NAME    = STARLINK-35175
OBJECT_ID      = 2025-225V
CENTER_NAME    = EARTH
REF_FRAME      = TEME
TIME_SYSTEM    = UTC
MEAN_ELEMENT_THEORY = SGP/SGP4

EPOCH          = 2025-10-30T20:00:03.000384
MEAN_MOTION    = 15.59638590
ECCENTRICITY   = .0001181
INCLINATION    = 53.1585
RA_OF_ASC_NODE = 51.5160
ARG_OF_PERICENTER = 65.9264
MEAN_ANOMALY   = 127.5660

EPHEMERIS_TYPE = 0
CLASSIFICATION_TYPE = U
NORAD_CAT_ID   = 65929
ELEMENT_SET_NO = 999
REV_AT_EPOCH   = 453
BSTAR          = -.28024E-1
MEAN_MOTION_DOT = -.199774E-1
MEAN_MOTION_DDOT = 0

CCSDS_OMM_VERS = 2.0
CREATION_DATE  = 
ORIGINATOR     = 

OBJECT_NAME    = STARLINK-35513
OBJECT_ID      = 2025-225W
CENTER_NAME    = EARTH
REF_FRAME      = TEME
TIME_SYSTEM    = UTC
MEAN_ELEMENT_THEORY = SGP/SGP4

EPOCH          = 2025-10-30T20:00:03.000384
MEAN_MOTION    = 15.59630624
ECCENTRICITY   = .0001222
INCLINATION    = 53.1592
RA_OF_ASC_NODE = 51.5236
ARG_OF_PERICENTER = 68.3542
MEAN_ANOMALY   = 121.3046

EPHEMERIS_TYPE = 0
CLASSIFICATION_TYPE = U
NORAD_CAT_ID   = 65930
ELEMENT_SET_NO = 999
REV_AT_EPOCH   = 453
BSTAR          = -.27812E-1
MEAN_MOTION_DOT = -.1984006E-1
MEAN_MOTION_DDOT = 0

CCSDS_OMM_VERS = 2.0
CREATION_DATE  = 
ORIGINATOR     = 

OBJECT_NAME    = STARLINK-35526
OBJECT_ID      = 2025-225X
CENTER_NAME    = EARTH
REF_FRAME      = TEME
TIME_SYSTEM    = UTC
MEAN_ELEMENT_THEORY = SGP/SGP4

EPOCH          = 2025-10-30T20:00:03.000384
MEAN_MOTION    = 15.59636069
ECCENTRICITY   = .0001245
INCLINATION    = 53.1591
RA_OF_ASC_NODE = 51.5114
ARG_OF_PERICENTER = 69.7828
MEAN_ANOMALY   = 125.6278

EPHEMERIS_TYPE = 0
CLASSIFICATION_TYPE = U
NORAD_CAT_ID   = 65931
ELEMENT_SET_NO = 999
REV_AT_EPOCH   = 453
BSTAR          = -.27969E-1
MEAN_MOTION_DOT = -.1994202E-1
MEAN_MOTION_DDOT = 0

CCSDS_OMM_VERS = 2.0
CREATION_DATE  = 
ORIGINATOR     = 

OBJECT_NAME    = STARLINK-35436
OBJECT_ID      = 2025-225Y
CENTER_NAME    = EARTH
REF_FRAME      = TEME
TIME_SYSTEM    = UTC
MEAN_ELEMENT_THEORY = SGP/SGP4

EPOCH          = 2025-10-30T20:00:03.000384
MEAN_MOTION    = 15.59640644
ECCENTRICITY   = .000122
INCLINATION    = 53.1589
RA_OF_ASC_NODE = 51.5083
ARG_OF_PERICENTER = 62.9719
MEAN_ANOMALY   = 134.3520

EPHEMERIS_TYPE = 0
CLASSIFICATION_TYPE = U
NORAD_CAT_ID   = 65932
ELEMENT_SET_NO = 999
REV_AT_EPOCH   = 453
BSTAR          = -.28056E-1
MEAN_MOTION_DOT = -.1999923E-1
MEAN_MOTION_DDOT = 0

CCSDS_OMM_VERS = 2.0
CREATION_DATE  = 
ORIGINATOR     = 

OBJECT_NAME    = STARLINK-35192
OBJECT_ID      = 2025-225Z
CENTER_NAME    = EARTH
REF_FRAME      = TEME
TIME_SYSTEM    = UTC
MEAN_ELEMENT_THEORY = SGP/SGP4

EPOCH          = 2025-10-30T20:00:03.000384
MEAN_MOTION    = 15.59633318
ECCENTRICITY   = .0001149
INCLINATION    = 53.1591
RA_OF_ASC_NODE = 51.4956
ARG_OF_PERICENTER = 70.1429
MEAN_ANOMALY   = 132.9343

EPHEMERIS_TYPE = 0
CLASSIFICATION_TYPE = U
NORAD_CAT_ID   = 65933
ELEMENT_SET_NO = 999
REV_AT_EPOCH   = 453
BSTAR          = -.27895E-1
MEAN_MOTION_DOT = -.1989311E-1
MEAN_MOTION_DDOT = 0

CCSDS_OMM_VERS = 2.0
CREATION_DATE  = 
ORIGINATOR     = 

OBJECT_NAME    = STARLINK-33921
OBJECT_ID      = 2025-225AA
CENTER_NAME    = EARTH
REF_FRAME      = TEME
TIME_SYSTEM    = UTC
MEAN_ELEMENT_THEORY = SGP/SGP4

EPOCH          = 2025-10-30T20:00:03.000384
MEAN_MOTION    = 15.59636432
ECCENTRICITY   = .0001197
INCLINATION    = 53.1591
RA_OF_ASC_NODE = 51.5042
ARG_OF_PERICENTER = 64.9983
MEAN_ANOMALY   = 134.2454

EPHEMERIS_TYPE = 0
CLASSIFICATION_TYPE = U
NORAD_CAT_ID   = 65934
ELEMENT_SET_NO = 999
REV_AT_EPOCH   = 452
BSTAR          = -.27984E-1
MEAN_MOTION_DOT = -.1995133E-1
MEAN_MOTION_DDOT = 0

CCSDS_OMM_VERS = 2.0
CREATION_DATE  = 
ORIGINATOR     = 

OBJECT_NAME    = STARLINK-35155
OBJECT_ID      = 2025-225AB
CENTER_NAME    = EARTH
REF_FRAME      = TEME
TIME_SYSTEM    = UTC
MEAN_ELEMENT_THEORY = SGP/SGP4

EPOCH          = 2025-10-30T20:00:03.000384
MEAN_MOTION    = 15.59632209
ECCENTRICITY   = .0001189
INCLINATION    = 53.1592
RA_OF_ASC_NODE = 51.5000
ARG_OF_PERICENTER = 70.7548
MEAN_ANOMALY   = 130.4059

EPHEMERIS_TYPE = 0
CLASSIFICATION_TYPE = U
NORAD_CAT_ID   = 65935
ELEMENT_SET_NO = 999
REV_AT_EPOCH   = 452
BSTAR          = -.27864E-1
MEAN_MOTION_DOT = -.1987315E-1
MEAN_MOTION_DDOT = 0

CCSDS_OMM_VERS = 2.0
CREATION_DATE  = 
ORIGINATOR     = 

OBJECT_NAME    = STARLINK-35161
OBJECT_ID      = 2025-225AC
CENTER_NAME    = EARTH
REF_FRAME      = TEME
TIME_SYSTEM    = UTC
MEAN_ELEMENT_THEORY = SGP/SGP4

EPOCH          = 2025-10-30T20:00:03.000384
MEAN_MOTION    = 15.59631643
ECCENTRICITY   = .0001245
INCLINATION    = 53.1591
RA_OF_ASC_NODE = 51.4922
ARG_OF_PERICENTER = 62.3911
MEAN_ANOMALY   = 142.5993

EPHEMERIS_TYPE = 0
CLASSIFICATION_TYPE = U
NORAD_CAT_ID   = 65936
ELEMENT_SET_NO = 999
REV_AT_EPOCH   = 453
BSTAR          = -.2781E-1
MEAN_MOTION_DOT = -.1983934E-1
MEAN_MOTION_DDOT = 0

CCSDS_OMM_VERS = 2.0
CREATION_DATE  = 
ORIGINATOR     = 

OBJECT_NAME    = STARLINK-35473
OBJECT_ID      = 2025-225AD
CENTER_NAME    = EARTH
REF_FRAME      = TEME
TIME_SYSTEM    = UTC
MEAN_ELEMENT_THEORY = SGP/SGP4

EPOCH          = 2025-10-30T20:00:03.000384
MEAN_MOTION    = 15.59630125
ECCENTRICITY   = .0001141
INCLINATION    = 53.1592
RA_OF_ASC_NODE = 51.4887
ARG_OF_PERICENTER = 69.2543
MEAN_ANOMALY   = 137.6583

EPHEMERIS_TYPE = 0
CLASSIFICATION_TYPE = U
NORAD_CAT_ID   = 65937
ELEMENT_SET_NO = 999
REV_AT_EPOCH   = 453
BSTAR          = -.2784E-1
MEAN_MOTION_DOT = -.1985669E-1
MEAN_MOTION_DDOT = 0

